STARLINK-1199           
1 45201U 20012Z   21027.53343641  .00000927  00000-0  81100-4 0  9990
2 45201  53.0591 128.5843 0001172  72.8643 287.2474 15.06406991 53697
STARLINK-1203           
1 45202U 20012AA  21027.65978484  .00003323  00000-0  24042-3 0  9997
2 45202  52.9828 146.9814 0001895 109.4881 250.6312 15.06626190 53470
STARLINK-1204           
1 45203U 20012AB  21027.96187494  .00000339  00000-0  41587-4 0  9993
2 45203  53.0007 126.6539 0000986 110.1033 250.0062 15.06432221 52799
STARLINK-1206           
1 45204U 20012AC  21028.55444756 -.00001636  00000-0 -90987-4 0  9998
2 45204  53.0573 124.0068 0001264  85.4851 274.6282 15.06390976 52919
STARLINK-1208           
1 45205U 20012AD  21027.64769039 -.00001055  00000-0 -51917-4 0  9997
2 45205  53.0588 128.0741 0001575  83.9227 276.1942 15.06407005 53736
STARLINK-1209           
1 45206U 20012AE  21028.47151729  .00000647  00000-0  62296-4 0  9997
2 45206  53.0570 104.3804 0001105 109.1143 250.9966 15.06407373 53163
STARLINK-1210           
1 45207U 20012AF  21027.73615858  .00000876  00000-0  77682-4 0  9993
2 45207  53.0594 127.6781 0001236  78.6569 281.4559 15.06391697 53729
STARLINK-1211           
1 45208U 20012AG  21027.55644112 -.00000719  00000-0 -30155-4 0  9991
2 45208  53.0012 128.5068 0001319 119.9142 240.1977 15.05585260 53637
STARLINK-1218           
1 45209U 20012AH  21027.63295418  .00000909  00000-0  79894-4 0  9994
2 45209  53.0599 128.1445 0001501  82.9570 277.1590 15.06404465 53651
STARLINK-1219           
1 45210U 20012AJ  21027.54079627 -.00000360  00000-0 -52790-5 0  9998
2 45210  53.0581 128.5457 0001355  75.2095 284.9044 15.06396570 53584
STARLINK-1231           
1 45212U 20012AL  21027.97206374 -.00000971  00000-0 -46281-4 0  9993
2 45212  53.0586 126.6158 0001421  76.9701 283.1447 15.06395371 52826
STARLINK-1232           
1 45213U 20012AM  21027.64402219  .00001256  00000-0  10320-3 0  9993
2 45213  53.0594 128.0884 0001364  80.7998 279.3145 15.06402095 53718
STARLINK-1233           
1 45214U 20012AN  21027.61451725 -.00000390  00000-0 -73198-5 0  9991
2 45214  53.0594 128.2231 0001221  71.2296 288.8826 15.06397824 53708
STARLINK-1245           
1 45215U 20012AP  21028.53968000  .00000942  00000-0  82118-4 0  9995
2 45215  53.0585 124.0722 0001420  65.9661 294.1476 15.06408186 52901
STARLINK-1254           
1 45216U 20012AQ  21027.63664606  .00000782  00000-0  71411-4 0  9997
2 45216  53.0584 128.1294 0001513  83.2260 276.8901 15.06402142 53559
STARLINK-1271           
1 45217U 20012AR  21028.51389120 -.00000302  00000-0 -14000-5 0  9993
2 45217  53.0597 124.1904 0001543  72.8310 287.2847 15.06393223 52903
STARLINK-1105           
1 45218U 20012AS  21027.68640140  .00000756  00000-0  69610-4 0  9990
2 45218  53.0593 107.9125 0001435 109.1056 251.0088 15.06399996 54018
STARLINK-1187           
1 45219U 20012AT  21027.91492805 -.00001179  00000-0 -60276-4 0  9991
2 45219  53.0583 106.8859 0001056 103.2207 256.8900 15.06394228 54044
STARLINK-1188           
1 45220U 20012AU  21027.92230177 -.00001011  00000-0 -49011-4 0  9995
2 45220  53.0588 106.8515 0001072  97.3773 262.7338 15.06394743 53928
STARLINK-1189           
1 45221U 20012AV  21028.18400022 -.00000762  00000-0 -32303-4 0  9991
2 45221  53.0569 105.6712 0001073 109.3229 250.7876 15.06393184 53130
STARLINK-1191           
1 45222U 20012AW  21028.52310550 -.00000636  00000-0 -23789-4 0  9994
2 45222  53.0571 104.1478 0001942  89.5808 270.5404 15.06398726 53183
STARLINK-1212           
1 45223U 20012AX  21027.94809383 -.00000861  00000-0 -38913-4 0  9992
2 45223  53.0581 106.7320 0001337  96.8264 263.2877 15.06396610 53109
STARLINK-1214           
1 45224U 20012AY  21027.49630484 -.00001006  00000-0 -49893-4 0  9998
2 45224  53.0007 108.7727 0001307  98.5191 261.5945 15.05581166 53862
STARLINK-1215           
1 45225U 20012AZ  21027.70114399 -.00000763  00000-0 -32286-4 0  9992
2 45225  53.0587 107.8436 0002848  78.9251 281.2058 15.06393867 53957
STARLINK-1217           
1 45226U 20012BA  21028.50468014 -.00000969  00000-0 -46186-4 0  9990
2 45226  53.0590 104.2330 0001290  98.5568 261.5567 15.06392488 53151
STARLINK-1221           
1 45227U 20012BB  21028.52678278 -.00000356  00000-0 -50087-5 0  9994
2 45227  53.0573 104.1427 0001223 101.6315 258.4812 15.06400814 53152
STARLINK-1222           
1 45228U 20012BC  21027.60161513  .00000716  00000-0  66984-4 0  9992
2 45228  53.0591 108.2855 0001127  85.8722 274.2396 15.06395916 53048
STARLINK-1226           
1 45229U 20012BD  21028.49362002 -.00000778  00000-0 -33360-4 0  9999
2 45229  53.0586 104.2845 0001300 105.1359 254.9774 15.06395068 53181
STARLINK-1227           
1 45230U 20012BE  21027.69376734 -.00000879  00000-0 -40111-4 0  9993
2 45230  53.0585 107.8728 0001397 101.8178 258.2968 15.06392934 54013
STARLINK-1229           
1 45231U 20012BF  21028.00080982  .00001303  00000-0  10858-3 0  9992
2 45231  53.0008 106.5109 0001230 111.9095 248.2024 15.05586555 53103
STARLINK-1235           
1 45232U 20012BG  21028.16925996 -.00000630  00000-0 -23370-4 0  9991
2 45232  53.0597 105.7389 0002253  81.1875 278.9369 15.06395919 53114
STARLINK-1238           
1 45233U 20012BH  21028.54706496 -.00002409  00000-0 -14289-3 0  9990
2 45233  53.0577 124.0417 0001441  83.8867 276.2286 15.06392982 52909
STARLINK-1243           
1 45234U 20012BJ  21028.51942023 -.00001264  00000-0 -65941-4 0  9996
2 45234  53.0592 144.1603 0001604  83.0147 277.1024 15.06398116 52658
STARLINK-1246           
1 45235U 20012BK  21028.50467636 -.00000760  00000-0 -32160-4 0  9995
2 45235  53.0577 144.2259 0001543  92.8706 267.2460 15.06392967 52653
STARLINK-1247           
1 45236U 20012BL  21027.69008566  .00000836  00000-0  74989-4 0  9995
2 45236  53.0570 107.8829 0001264  97.9035 262.2097 15.06398592 53995
STARLINK-1270           
1 45237U 20012BM  21028.50835498  .00000174  00000-0  30620-4 0  9998
2 45237  53.0596 104.2177 0001388 103.7021 256.4123 15.06382277 53188
JCSAT-17                
1 45245U 20013A   21028.22374203 -.00000299  00000-0  00000+0 0  9992
2 45245   6.6626 344.0969 0004198 327.4870  32.6471  1.00271274  3534
GEO-KOMPSAT-2B          
1 45246U 20013B   21027.89900462 -.00000336  00000-0  00000-0 0  9990
2 45246   0.0299 206.1863 0000850 172.5811 200.4940  1.00270340  3545
XJS C                   
1 45249U 20014A   21028.47418657  .00002812  00000-0  98043-4 0  9997
2 45249  35.0184  61.8452 0007833 130.3918  11.2644 15.29194847 52611
XJS D                   
1 45250U 20014B   21028.47411037  .00002933  00000-0  10221-3 0  9999
2 45250  35.0190  61.8590 0007571 130.0047  11.6231 15.29198767 52613
XJS E                   
1 45251U 20014C   21028.47426543  .00002415  00000-0  84393-4 0  9995
2 45251  35.0188  61.8599 0007625 136.5131   5.1715 15.29199589 52578
XJS F                   
1 45253U 20014E   21028.47400294  .00003618  00000-0  12576-3 0  9991
2 45253  35.0182  61.8373 0007202 131.1227  10.5052 15.29194057 52571
MERIDIAN 9              
1 45254U 20015A   21028.49726574  .00000312  00000-0  00000+0 0  9990
2 45254  62.9543 182.2880 7014753 295.3326  24.6565  2.00606758  6870
HARP                    
1 45256U 98067QZ  21027.87999051  .00015142  00000-0  22761-3 0  9996
2 45256  51.6427 309.8692 0007829 109.6071 250.5765 15.55049358 53379
1998-067RA              
1 45257U 98067RA  21028.48996823  .00012366  00000-0  19107-3 0  9994
2 45257  51.6413 307.1667 0008426 113.0898 247.0982 15.54487755 53466
PHOENIX                 
1 45258U 98067RB  21027.96747101  .00010552  00000-0  16804-3 0  9996
2 45258  51.6417 310.4139 0006759  94.4405 265.7358 15.53846641 53348
1998-067RC              
1 45259U 98067RC  21028.15323512  .00017572  00000-0  25052-3 0  9999
2 45259  51.6407 307.1678 0007768 110.8085 249.3739 15.56368398 53439
CRYOCUBE                
1 45260U 98067RD  21027.87491583  .00022183  00000-0  31375-3 0  9992
2 45260  51.6407 308.3108 0008444 110.9894 249.2002 15.56406366 53400
AZTECHSAT-1             
1 45261U 98067RE  21028.26181997  .00024731  00000-0  32884-3 0  9999
2 45261  51.6395 304.8921 0008151 112.4319 247.7537 15.58001766 53464
RADSAT-U                
1 45262U 98067RF  21027.82631367  .00013104  00000-0  20068-3 0  9995
2 45262  51.6430 310.2592 0007081 139.3324 220.8197 15.54682142 53378
QARMAN                  
1 45263U 98067RG  21027.16701715  .00018248  00000-0  26193-3 0  9997
2 45263  51.6408 312.5771 0007828 104.4015 255.7846 15.56153465 53301
SORTIE                  
1 45264U 98067RH  21028.07146112  .00008042  00000-0  13445-3 0  9990
2 45264  51.6428 311.1306 0008084 115.3113 244.8716 15.52862710 53376
BEIDOU-3 G2             
1 45344U 20017A   21027.88940865 -.00000129  00000-0  00000-0 0  9993
2 45344   2.6204 332.9657 0001538   8.3628 186.2582  1.00271149  3544
COSMOS 2545 [GLONASS-M] 
1 45358U 20018A   21028.09640274 -.00000029  00000-0  00000+0 0  9992
2 45358  64.8819  20.8070 0011441 256.2144 158.9616  2.13102697  6761
STARLINK-1279           
1 45360U 20019A   21028.26785772 -.00002011  00000-0 -11613-3 0  9998
2 45360  53.0127 235.2950 0001536  79.0965 281.0196 15.06391170 48827
STARLINK-1301           
1 45361U 20019B   21028.12319962  .00000470  00000-0  50468-4 0  9995
2 45361  53.0552 245.9461 0002015  74.6505 285.4706 15.06383218 48671
STARLINK-1306           
1 45362U 20019C   21028.36841551 -.00011382  00000-0 -75008-3 0  9998
2 45362  53.0268 264.8302 0002061  95.2479 264.8745 15.06220045 48436
STARLINK-1313           
1 45364U 20019E   21028.26413579 -.00018900  00000-0 -12503-2 0  9997
2 45364  53.0193 235.3061 0000723 266.3129  93.7777 15.06489129 48823
STARLINK-1317           
1 45365U 20019F   21028.06664554  .00000295  00000-0  39445-4 0  9999
2 45365  52.9986 246.2181 0002386  86.1173 274.0088 15.05582350 48659
